start=new Date('2021-12-06T00:00:00.000Z').valueOf();
sats=[{"ARG_OF_PERICENTER":"92.1641","CLASSIFICATION_TYPE":"U","APOAPSIS":"548.225","PERIAPSIS":"546.285","BSTAR":"0.00001352100000","OBJECT_NAME":"STARLINK-2273","SEMIMAJOR_AXIS":"6925.390","TLE_LINE1":"1 47993U 21024S   21339.62282659 -.00000080  00000-0  13521-4 0  9994","TIME_SYSTEM":"UTC","MEAN_MOTION_DDOT":"0.0000000000000","RA_OF_ASC_NODE":"77.5849","FILE":"3233515","EPHEMERIS_TYPE":"0","OBJECT_TYPE":"PAYLOAD","INCLINATION":"53.0571","TLE_LINE2":"2 47993  53.0571  77.5849 0001401  92.1641 267.9508 15.06386426 40736","OBJECT_ID":"2021-024S","PERIOD":"95.593","RCS_SIZE":"LARGE","EPOCH":"2021-12-05T14:56:52.217376","MEAN_ELEMENT_THEORY":"SGP4","REF_FRAME":"TEME","SITE":"AFETR","DECAY_DATE":null,"CENTER_NAME":"EARTH","COUNTRY_CODE":"US","ECCENTRICITY":"0.00014010","MEAN_MOTION":"15.06386426","MEAN_ANOMALY":"267.9508","LAUNCH_DATE":"2021-03-24","ELEMENT_SET_NO":"999","MEAN_MOTION_DOT":"-0.00000080","REV_AT_EPOCH":"4073","GP_ID":"191170333","NORAD_CAT_ID":"47993"},{"GP_ID":"191170083","REV_AT_EPOCH":"4049","NORAD_CAT_ID":"47994","MEAN_ANOMALY":"311.3647","MEAN_MOTION":"15.06393394","ELEMENT_SET_NO":"999","MEAN_MOTION_DOT":"0.00000007","LAUNCH_DATE":"2021-03-24","CENTER_NAME":"EARTH","DECAY_DATE":null,"ECCENTRICITY":"0.00018480","COUNTRY_CODE":"US","EPOCH":"2021-12-05T19:49:27.647616","SITE":"AFETR","MEAN_ELEMENT_THEORY":"SGP4","REF_FRAME":"TEME","PERIOD":"95.593","OBJECT_ID":"2021-024T","TLE_LINE2":"2 47994  53.0567  91.6684 0001848  48.7501 311.3647 15.06393394 40496","INCLINATION":"53.0567","RCS_SIZE":"LARGE","FILE":"3233515","RA_OF_ASC_NODE":"91.6684","MEAN_MOTION_DDOT":"0.0000000000000","OBJECT_TYPE":"PAYLOAD","EPHEMERIS_TYPE":"0","SEMIMAJOR_AXIS":"6925.369","TIME_SYSTEM":"UTC","TLE_LINE1":"1 47994U 21024T   21339.82601444  .00000007  00000-0  19348-4 0  9995","BSTAR":"0.00001934800000","PERIAPSIS":"545.954","APOAPSIS":"548.514","CLASSIFICATION_TYPE":"U","ARG_OF_PERICENTER":"48.7501","OBJECT_NAME":"STARLINK-2290"},{"CENTER_NAME":"EARTH","DECAY_DATE":null,"COUNTRY_CODE":"US","ECCENTRICITY":"0.00015850","EPOCH":"2021-12-05T22:29:19.008384","REF_FRAME":"TEME","MEAN_ELEMENT_THEORY":"SGP4","SITE":"AFETR","REV_AT_EPOCH":"4101","GP_ID":"191171335","NORAD_CAT_ID":"47995","MEAN_ANOMALY":"294.6172","MEAN_MOTION":"15.06392092","LAUNCH_DATE":"2021-03-24","ELEMENT_SET_NO":"999","MEAN_MOTION_DOT":"0.00000356","SEMIMAJOR_AXIS":"6925.373","TIME_SYSTEM":"UTC","TLE_LINE1":"1 47995U 21024U   21339.93702556  .00000356  00000-0  42810-4 0  9991","ARG_OF_PERICENTER":"65.4983","CLASSIFICATION_TYPE":"U","BSTAR":"0.00004281000000","APOAPSIS":"548.335","PERIAPSIS":"546.140","OBJECT_NAME":"STARLINK-2309","TLE_LINE2":"2 47995  53.0603  56.1592 0001585  65.4983 294.6172 15.06392092 41019","OBJECT_ID":"2021-024U","INCLINATION":"53.0603","PERIOD":"95.593","RCS_SIZE":"LARGE","FILE":"3233515","MEAN_MOTION_DDOT":"0.0000000000000","RA_OF_ASC_NODE":"56.1592","EPHEMERIS_TYPE":"0","OBJECT_TYPE":"PAYLOAD"},{"DECAY_DATE":null,"CENTER_NAME":"EARTH","COUNTRY_CODE":"US","ECCENTRICITY":"0.00024150","EPOCH":"2021-12-05T22:00:00.999936","MEAN_ELEMENT_THEORY":"SGP4","REF_FRAME":"TEME","SITE":"AFETR","REV_AT_EPOCH":"364","GP_ID":"191171085","NORAD_CAT_ID":"47996","MEAN_MOTION":"15.31833725","MEAN_ANOMALY":"67.9998","LAUNCH_DATE":"2021-03-24","ELEMENT_SET_NO":"999","MEAN_MOTION_DOT":"0.00028074","SEMIMAJOR_AXIS":"6848.478","TLE_LINE1":"1 47996U 21024V   21339.91667824  .00028074  00000-0  90914-3 0  9992","TIME_SYSTEM":"UTC","CLASSIFICATION_TYPE":"U","ARG_OF_PERICENTER":"357.8205","PERIAPSIS":"468.689","APOAPSIS":"471.997","BSTAR":"0.00090914000000","OBJECT_NAME":"STARLINK-2260","INCLINATION":"53.0444","OBJECT_ID":"2021-024V","TLE_LINE2":"2 47996  53.0444  16.4629 0002415 357.8205  67.9998 15.31833725  3646","PERIOD":"94.005","RCS_SIZE":"LARGE","MEAN_MOTION_DDOT":"0.0000000000000","RA_OF_ASC_NODE":"16.4629","FILE":"3233515","EPHEMERIS_TYPE":"0","OBJECT_TYPE":"PAYLOAD"},{"OBJECT_NAME":"STARLINK-2266","CLASSIFICATION_TYPE":"U","ARG_OF_PERICENTER":"95.3400","BSTAR":"0.00001066800000","PERIAPSIS":"546.253","APOAPSIS":"548.219","TIME_SYSTEM":"UTC","TLE_LINE1":"1 47997U 21024W   21339.80758213 -.00000123  00000-0  10668-4 0  9999","SEMIMAJOR_AXIS":"6925.371","EPHEMERIS_TYPE":"0","OBJECT_TYPE":"PAYLOAD","FILE":"3233515","RA_OF_ASC_NODE":"91.7617","MEAN_MOTION_DDOT":"0.0000000000000","RCS_SIZE":"LARGE","TLE_LINE2":"2 47997  53.0578  91.7617 0001419  95.3400 264.7751 15.06392645 40550","OBJECT_ID":"2021-024W","INCLINATION":"53.0578","PERIOD":"95.593","REF_FRAME":"TEME","MEAN_ELEMENT_THEORY":"SGP4","SITE":"AFETR","EPOCH":"2021-12-05T19:22:55.096032","COUNTRY_CODE":"US","ECCENTRICITY":"0.00014190","CENTER_NAME":"EARTH","DECAY_DATE":null,"LAUNCH_DATE":"2021-03-24","ELEMENT_SET_NO":"999","MEAN_MOTION_DOT":"-0.00000123","MEAN_ANOMALY":"264.7751","MEAN_MOTION":"15.06392645","NORAD_CAT_ID":"47997","REV_AT_EPOCH":"4055","GP_ID":"191169833"},{"RCS_SIZE":"LARGE","OBJECT_ID":"2021-024X","TLE_LINE2":"2 47998  53.0546  67.1137 0001389  78.4814 281.6331 15.06400916 40831","INCLINATION":"53.0546","PERIOD":"95.592","EPHEMERIS_TYPE":"0","OBJECT_TYPE":"PAYLOAD","FILE":"3233515","MEAN_MOTION_DDOT":"0.0000000000000","RA_OF_ASC_NODE":"67.1137","TIME_SYSTEM":"UTC","TLE_LINE1":"1 47998U 21024X   21339.72600478  .00000258  00000-0  36243-4 0  9995","SEMIMAJOR_AXIS":"6925.346","OBJECT_NAME":"STARLINK-2296","CLASSIFICATION_TYPE":"U","ARG_OF_PERICENTER":"78.4814","BSTAR":"0.00003624300000","APOAPSIS":"548.173","PERIAPSIS":"546.249","NORAD_CAT_ID":"47998","REV_AT_EPOCH":"4083","GP_ID":"191170584","LAUNCH_DATE":"2021-03-24","MEAN_MOTION_DOT":"0.00000258","ELEMENT_SET_NO":"999","MEAN_ANOMALY":"281.6331","MEAN_MOTION":"15.06400916","ECCENTRICITY":"0.00013890","COUNTRY_CODE":"US","CENTER_NAME":"EARTH","DECAY_DATE":null,"REF_FRAME":"TEME","MEAN_ELEMENT_THEORY":"SGP4","SITE":"AFETR","EPOCH":"2021-12-05T17:25:26.812992"},{"EPHEMERIS_TYPE":"0","OBJECT_TYPE":"PAYLOAD","FILE":"3233515","MEAN_MOTION_DDOT":"0.0000000000000","RA_OF_ASC_NODE":"36.2565","RCS_SIZE":"LARGE","TLE_LINE2":"2 47999  53.0562  36.2565 0001860  49.7143  49.9600 15.06407606  3591","OBJECT_ID":"2021-024Y","INCLINATION":"53.0562","PERIOD":"95.592","OBJECT_NAME":"STARLINK-2218","CLASSIFICATION_TYPE":"U","ARG_OF_PERICENTER":"49.7143","BSTAR":"0.00001929700000","APOAPSIS":"548.478","PERIAPSIS":"545.902","TIME_SYSTEM":"UTC","TLE_LINE1":"1 47999U 21024Y   21339.91667824  .00000006  00000-0  19297-4 0  9996","SEMIMAJOR_AXIS":"6925.325","LAUNCH_DATE":"2021-03-24","ELEMENT_SET_NO":"999","MEAN_MOTION_DOT":"0.00000006","MEAN_ANOMALY":"49.9600","MEAN_MOTION":"15.06407606","NORAD_CAT_ID":"47999","REV_AT_EPOCH":"359","GP_ID":"191170835","MEAN_ELEMENT_THEORY":"SGP4","REF_FRAME":"TEME","SITE":"AFETR","EPOCH":"2021-12-05T22:00:00.999936","COUNTRY_CODE":"US","ECCENTRICITY":"0.00018600","CENTER_NAME":"EARTH","DECAY_DATE":null},{"NORAD_CAT_ID":"48000","REV_AT_EPOCH":"362","GP_ID":"191171586","LAUNCH_DATE":"2021-03-24","ELEMENT_SET_NO":"999","MEAN_MOTION_DOT":"0.00006460","MEAN_ANOMALY":"169.2442","MEAN_MOTION":"15.06381541","ECCENTRICITY":"0.00014740","COUNTRY_CODE":"US","CENTER_NAME":"EARTH","DECAY_DATE":null,"REF_FRAME":"TEME","MEAN_ELEMENT_THEORY":"SGP4","SITE":"AFETR","EPOCH":"2021-12-05T22:00:00.999936","RCS_SIZE":"LARGE","OBJECT_ID":"2021-024Z","TLE_LINE2":"2 48000  53.0521  21.2518 0001474  52.9773 169.2442 15.06381541  3621","INCLINATION":"53.0521","PERIOD":"95.593","EPHEMERIS_TYPE":"0","OBJECT_TYPE":"PAYLOAD","FILE":"3233515","MEAN_MOTION_DDOT":"0.0000000000000","RA_OF_ASC_NODE":"21.2518","TIME_SYSTEM":"UTC","TLE_LINE1":"1 48000U 21024Z   21339.91667824  .00006460  00000-0  45242-3 0  9998","SEMIMAJOR_AXIS":"6925.405","OBJECT_NAME":"STARLINK-2270","CLASSIFICATION_TYPE":"U","ARG_OF_PERICENTER":"52.9773","BSTAR":"0.00045242000000","APOAPSIS":"548.291","PERIAPSIS":"546.249"},{"RCS_SIZE":"LARGE","TLE_LINE2":"2 48002  53.0551  41.2528 0001291  63.3859  68.7932 15.06408606  3592","OBJECT_ID":"2021-024AB","INCLINATION":"53.0551","PERIOD":"95.592","EPHEMERIS_TYPE":"0","OBJECT_TYPE":"PAYLOAD","FILE":"3233515","RA_OF_ASC_NODE":"41.2528","MEAN_MOTION_DDOT":"0.0000000000000","TIME_SYSTEM":"UTC","TLE_LINE1":"1 48002U 21024AB  21339.91667824 -.00009618  00000-0 -62752-3 0  9995","SEMIMAJOR_AXIS":"6925.322","OBJECT_NAME":"STARLINK-2265","ARG_OF_PERICENTER":"63.3859","CLASSIFICATION_TYPE":"U","BSTAR":"-0.00062752000000","PERIAPSIS":"546.293","APOAPSIS":"548.081","NORAD_CAT_ID":"48002","REV_AT_EPOCH":"359","GP_ID":"191170334","LAUNCH_DATE":"2021-03-24","MEAN_MOTION_DOT":"-0.00009618","ELEMENT_SET_NO":"999","MEAN_ANOMALY":"68.7932","MEAN_MOTION":"15.06408606","ECCENTRICITY":"0.00012910","COUNTRY_CODE":"US","CENTER_NAME":"EARTH","DECAY_DATE":null,"MEAN_ELEMENT_THEORY":"SGP4","REF_FRAME":"TEME","SITE":"AFETR","EPOCH":"2021-12-05T22:00:00.999936"},{"OBJECT_TYPE":"PAYLOAD","EPHEMERIS_TYPE":"0","RA_OF_ASC_NODE":"117.1757","MEAN_MOTION_DDOT":"0.0000000000000","FILE":"3233515","RCS_SIZE":"LARGE","PERIOD":"95.593","INCLINATION":"53.0550","OBJECT_ID":"2021-024AC","TLE_LINE2":"2 48003  53.0550 117.1757 0001873  86.1185 274.0018 15.06393267 40123","OBJECT_NAME":"STARLINK-2263","PERIAPSIS":"545.937","APOAPSIS":"548.531","BSTAR":"0.00009960600000","ARG_OF_PERICENTER":"86.1185","CLASSIFICATION_TYPE":"U","TLE_LINE1":"1 48003U 21024AC  21339.71128615  .00001202  00000-0  99606-4 0  9992","TIME_SYSTEM":"UTC","SEMIMAJOR_AXIS":"6925.369","MEAN_MOTION_DOT":"0.00001202","ELEMENT_SET_NO":"999","LAUNCH_DATE":"2021-03-24","MEAN_MOTION":"15.06393267","MEAN_ANOMALY":"274.0018","NORAD_CAT_ID":"48003","GP_ID":"191170084","REV_AT_EPOCH":"4012","SITE":"AFETR","MEAN_ELEMENT_THEORY":"SGP4","REF_FRAME":"TEME","EPOCH":"2021-12-05T17:04:15.123360","COUNTRY_CODE":"US","ECCENTRICITY":"0.00018730","DECAY_DATE":null,"CENTER_NAME":"EARTH"}];
